{
  "type": "FeatureCollection",
  "features": [
    {
      "type": "Feature",
      "properties": {
        "norad_id": 29790,
        "name": "FENGYUN 1C DEB",
        "group": "fengyun-1c-debris",
        "lat": 48.03608462411648,
        "lon": -28.895373017876985,
        "alt_km": 811.5755683428852,
        "timestamp": "2025-12-13T08:49:15.957381+00:00",
        "meta_object_name": "FENGYUN 1C DEB",
        "meta_object_id": "1999-025CG",
        "meta_epoch": "2025-12-12T22:31:51.905280",
        "meta_mean_motion": 14.3226934,
        "meta_eccentricity": 0.00765064,
        "meta_inclination": 99.1472,
        "meta_ra_of_asc_node": 340.9742,
        "meta_arg_of_pericenter": 175.9583,
        "meta_mean_anomaly": 184.2233,
        "meta_ephemeris_type": 0,
        "meta_classification_type": "U",
        "meta_norad_cat_id": 29790,
        "meta_element_set_no": 999,
        "meta_rev_at_epoch": 98528,
        "meta_bstar": 0.00041359098,
        "meta_mean_motion_dot": 1.104e-05,
        "meta_mean_motion_ddot": 0,
        "tle_line1": "1 29790U 99025CG  25346.93879520  .00001104  00000+0  41359-3 0  9995",
        "tle_line2": "2 29790  99.1472 340.9742 0076506 175.9583 184.2233 14.32269340985281"
      },
      "geometry": {
        "type": "Point",
        "coordinates": [
          -28.895373017876985,
          48.03608462411648
        ]
      }
    },
    {
      "type": "Feature",
      "properties": {
        "norad_id": 29791,
        "name": "FENGYUN 1C DEB",
        "group": "fengyun-1c-debris",
        "lat": 37.35041923937674,
        "lon": -19.010284091180562,
        "alt_km": 668.8188106974558,
        "timestamp": "2025-12-13T08:49:15.957392+00:00",
        "meta_object_name": "FENGYUN 1C DEB",
        "meta_object_id": "1999-025CH",
        "meta_epoch": "2025-12-12T23:02:12.399936",
        "meta_mean_motion": 14.58255346,
        "meta_eccentricity": 0.00415305,
        "meta_inclination": 99.0369,
        "meta_ra_of_asc_node": 347.5234,
        "meta_arg_of_pericenter": 61.3934,
        "meta_mean_anomaly": 357.802,
        "meta_ephemeris_type": 0,
        "meta_classification_type": "U",
        "meta_norad_cat_id": 29791,
        "meta_element_set_no": 999,
        "meta_rev_at_epoch": 98849,
        "meta_bstar": 0.0022772799,
        "meta_mean_motion_dot": 0.00010606,
        "meta_mean_motion_ddot": 0,
        "tle_line1": "1 29791U 99025CH  25346.95986574  .00010606  00000+0  22773-2 0  9991",
        "tle_line2": "2 29791  99.0369 347.5234 0041530  61.3934 357.8020 14.58255346988499"
      },
      "geometry": {
        "type": "Point",
        "coordinates": [
          -19.010284091180562,
          37.35041923937674
        ]
      }
    },
    {
      "type": "Feature",
      "properties": {
        "norad_id": 29792,
        "name": "FENGYUN 1C DEB",
        "group": "fengyun-1c-debris",
        "lat": -38.97134228909952,
        "lon": 45.08303288313769,
        "alt_km": 838.6742651371869,
        "timestamp": "2025-12-13T08:49:15.957402+00:00",
        "meta_object_name": "FENGYUN 1C DEB",
        "meta_object_id": "1999-025CJ",
        "meta_epoch": "2025-12-12T02:27:45.945504",
        "meta_mean_motion": 14.15148904,
        "meta_eccentricity": 0.00480793,
        "meta_inclination": 98.7575,
        "meta_ra_of_asc_node": 36.6781,
        "meta_arg_of_pericenter": 38.5536,
        "meta_mean_anomaly": 321.9056,
        "meta_ephemeris_type": 0,
        "meta_classification_type": "U",
        "meta_norad_cat_id": 29792,
        "meta_element_set_no": 999,
        "meta_rev_at_epoch": 96930,
        "meta_bstar": 0.0018619114,
        "meta_mean_motion_dot": 3.612e-05,
        "meta_mean_motion_ddot": 0,
        "tle_line1": "1 29792U 99025CJ  25346.10261511  .00003612  00000+0  18619-2 0  9999",
        "tle_line2": "2 29792  98.7575  36.6781 0048079  38.5536 321.9056 14.15148904969301"
      },
      "geometry": {
        "type": "Point",
        "coordinates": [
          45.08303288313769,
          -38.97134228909952
        ]
      }
    },
    {
      "type": "Feature",
      "properties": {
        "norad_id": 29793,
        "name": "FENGYUN 1C DEB",
        "group": "fengyun-1c-debris",
        "lat": -81.1652957792456,
        "lon": -84.89872885307398,
        "alt_km": 859.2108715333152,
        "timestamp": "2025-12-13T08:49:15.957412+00:00",
        "meta_object_name": "FENGYUN 1C DEB",
        "meta_object_id": "1999-025CK",
        "meta_epoch": "2025-12-12T23:41:47.007168",
        "meta_mean_motion": 14.01078759,
        "meta_eccentricity": 0.01436912,
        "meta_inclination": 98.3547,
        "meta_ra_of_asc_node": 165.7428,
        "meta_arg_of_pericenter": 337.5231,
        "meta_mean_anomaly": 174.5438,
        "meta_ephemeris_type": 0,
        "meta_classification_type": "U",
        "meta_norad_cat_id": 29793,
        "meta_element_set_no": 999,
        "meta_rev_at_epoch": 96152,
        "meta_bstar": 0.0014250424,
        "meta_mean_motion_dot": 2.299e-05,
        "meta_mean_motion_ddot": 0,
        "tle_line1": "1 29793U 99025CK  25346.98734962  .00002299  00000+0  14250-2 0  9998",
        "tle_line2": "2 29793  98.3547 165.7428 0143691 337.5231 174.5438 14.01078759961526"
      },
      "geometry": {
        "type": "Point",
        "coordinates": [
          -84.89872885307398,
          -81.1652957792456
        ]
      }
    },
    {
      "type": "Feature",
      "properties": {
        "norad_id": 29794,
        "name": "FENGYUN 1C DEB",
        "group": "fengyun-1c-debris",
        "lat": -54.44272211185613,
        "lon": -45.689874404645494,
        "alt_km": 978.7438527211962,
        "timestamp": "2025-12-13T08:49:15.957422+00:00",
        "meta_object_name": "FENGYUN 1C DEB",
        "meta_object_id": "1999-025CL",
        "meta_epoch": "2025-12-12T16:26:24.057024",
        "meta_mean_motion": 14.08996817,
        "meta_eccentricity": 0.01571054,
        "meta_inclination": 98.1995,
        "meta_ra_of_asc_node": 145.3257,
        "meta_arg_of_pericenter": 40.6681,
        "meta_mean_anomaly": 334.8807,
        "meta_ephemeris_type": 0,
        "meta_classification_type": "U",
        "meta_norad_cat_id": 29794,
        "meta_element_set_no": 999,
        "meta_rev_at_epoch": 96847,
        "meta_bstar": 0.00074979432,
        "meta_mean_motion_dot": 1.417e-05,
        "meta_mean_motion_ddot": 0,
        "tle_line1": "1 29794U 99025CL  25346.68500066  .00001417  00000+0  74979-3 0  9998",
        "tle_line2": "2 29794  98.1995 145.3257 0157105  40.6681 334.8807 14.08996817968475"
      },
      "geometry": {
        "type": "Point",
        "coordinates": [
          -45.689874404645494,
          -54.44272211185613
        ]
      }
    },
    {
      "type": "Feature",
      "properties": {
        "norad_id": 29795,
        "name": "FENGYUN 1C DEB",
        "group": "fengyun-1c-debris",
        "lat": -65.76257088462319,
        "lon": 137.00927312347088,
        "alt_km": 848.5819794685467,
        "timestamp": "2025-12-13T08:49:15.957432+00:00",
        "meta_object_name": "FENGYUN 1C DEB",
        "meta_object_id": "1999-025CM",
        "meta_epoch": "2025-12-12T21:41:25.631232",
        "meta_mean_motion": 13.92909672,
        "meta_eccentricity": 0.01110342,
        "meta_inclination": 98.8703,
        "meta_ra_of_asc_node": 116.2689,
        "meta_arg_of_pericenter": 275.7554,
        "meta_mean_anomaly": 212.2183,
        "meta_ephemeris_type": 0,
        "meta_classification_type": "U",
        "meta_norad_cat_id": 29795,
        "meta_element_set_no": 999,
        "meta_rev_at_epoch": 96067,
        "meta_bstar": 0.0002741715,
        "meta_mean_motion_dot": 3.31e-06,
        "meta_mean_motion_ddot": 0,
        "tle_line1": "1 29795U 99025CM  25346.90376888  .00000331  00000+0  27417-3 0  9996",
        "tle_line2": "2 29795  98.8703 116.2689 0111034 275.7554 212.2183 13.92909672960672"
      },
      "geometry": {
        "type": "Point",
        "coordinates": [
          137.00927312347088,
          -65.76257088462319
        ]
      }
    },
    {
      "type": "Feature",
      "properties": {
        "norad_id": 29796,
        "name": "FENGYUN 1C DEB",
        "group": "fengyun-1c-debris",
        "lat": -39.28353094142488,
        "lon": 46.5676695132579,
        "alt_km": 835.702564286943,
        "timestamp": "2025-12-13T08:49:15.957443+00:00",
        "meta_object_name": "FENGYUN 1C DEB",
        "meta_object_id": "1999-025CN",
        "meta_epoch": "2025-12-12T15:01:53.867424",
        "meta_mean_motion": 14.1233569,
        "meta_eccentricity": 0.00518587,
        "meta_inclination": 98.8649,
        "meta_ra_of_asc_node": 38.5,
        "meta_arg_of_pericenter": 268.2065,
        "meta_mean_anomaly": 244.9456,
        "meta_ephemeris_type": 0,
        "meta_classification_type": "U",
        "meta_norad_cat_id": 29796,
        "meta_element_set_no": 999,
        "meta_rev_at_epoch": 97059,
        "meta_bstar": 0.0009381492,
        "meta_mean_motion_dot": 1.706e-05,
        "meta_mean_motion_ddot": 0,
        "tle_line1": "1 29796U 99025CN  25346.62631791  .00001706  00000+0  93815-3 0  9995",
        "tle_line2": "2 29796  98.8649  38.5000 0051858 268.2065 244.9456 14.12335690970599"
      },
      "geometry": {
        "type": "Point",
        "coordinates": [
          46.5676695132579,
          -39.28353094142488
        ]
      }
    }
  ]
}